HIMAWARI-9              
1 41836U 16064A   26087.92914050 -.00000294  00000+0  00000+0 0  9996
2 41836   0.0280 132.0980 0001030 233.0858 296.4070  1.00272924 34406
SHIJIAN-17 (SJ-17)      
1 41838U 16065A   26088.18532039 -.00000134  00000+0  00000+0 0  9994
2 41838   5.5508  73.5516 0001171 327.2100 206.7425  0.99869131 34404
YZ-2 R/B                
1 41840U 16065C   26087.13036170 -.00000193  00000+0  00000+0 0  9991
2 41840   9.1577  67.4002 0466226 230.2393 125.6463  0.93474078 32098
GOES 16                 
1 41866U 16071A   26088.16573365 -.00000110  00000+0  00000+0 0  9991
2 41866   0.1593  85.4870 0002177 233.9683 182.0751  1.00271594 34301
TIANLIAN 1-04           
1 41869U 16072A   26088.15013359  .00000012  00000+0  00000+0 0  9996
2 41869   0.6602  83.3174 0039985  92.0018 242.0344  1.00272138 34497
WGS F8 (USA 272)        
1 41879U 16075A   26087.84002933 -.00000222  00000+0  00000+0 0  9995
2 41879   0.0117 195.1919 0000210 225.7500 217.5141  1.00271762 34014
FENGYUN 4A              
1 41882U 16077A   26087.99711111 -.00000375  00000+0  00000+0 0  9991
2 41882   2.1194  81.0791 0007472 136.1368  91.8114  1.00266071 34123
ECHOSTAR 19             
1 41893U 16079A   26088.09939326 -.00000158  00000+0  00000+0 0  9996
2 41893   0.0190 148.6451 0001396 209.1682 127.3562  1.00271713 33906
JCSAT-110A (JCSAT-15)   
1 41903U 16082A   26087.99442443  .00000000  00000+0  00000+0 0  9994
2 41903   0.0248 178.9041 0000594 192.9483 282.6227  1.00266797 33954
STAR ONE D1             
1 41904U 16082B   26088.16989365 -.00000230  00000+0  00000+0 0  9990
2 41904   0.0161 227.6263 0002136 151.4022 144.6980  1.00270670 33970
TJS-2                   
1 41911U 17001A   26088.12838017 -.00000025  00000+0  00000+0 0  9995
2 41911   0.6272  86.3467 0001456 263.8540 309.0658  1.00271643 33914
YZ-1 R/B                
1 41929U 15019C   26091.75729010 -.00001068  00000+0  00000+0 0  9994
2 41929  12.3350 102.0417 6864645 300.3137 358.8059  0.27921402 10558
SBIRS GEO-4 (USA 273)   
1 41937U 17004A   26088.04807131  .00000106  00000+0  00000+0 0  9999
2 41937   2.0948  40.8894 0002368 320.4883 223.2700  1.00272001 33790
HISPASAT 36W-1          
1 41942U 17006A   26088.17934036 -.00000264  00000+0  00000+0 0  9992
2 41942   0.0191   9.8760 0001053 352.5398 212.7212  1.00272470 33441
TELKOM 3S               
1 41944U 17007A   26087.99598443 -.00000382  00000+0  00000+0 0  9993
2 41944   0.0168 190.7612 0002338 174.0097 298.1791  1.00272453 33332
INTELSAT 32E (IS-32E)   
1 41945U 17007B   26088.17795368  .00000000  00000+0  00000+0 0  9996
2 41945   0.0241 178.4201 0000644 112.0226 277.0379  1.00270876 33421
ECHOSTAR 23             
1 42070U 17014A   26087.95080726  .00000000  00000+0  00000+0 0  9994
2 42070   0.0230 172.5476 0002019 199.3275  46.8868  1.00270676 33117
