[{"OBJECT_NAME":"HIMAWARI-9","OBJECT_ID":"2016-064A","EPOCH":"2026-03-28T22:17:57.739200","MEAN_MOTION":1.00272924,"ECCENTRICITY":0.000103,"INCLINATION":0.028,"RA_OF_ASC_NODE":132.098,"ARG_OF_PERICENTER":233.0858,"MEAN_ANOMALY":296.407,"EPHEMERIS_TYPE":0,"CLASSIFICATION_TYPE":"U","NORAD_CAT_ID":41836,"ELEMENT_SET_NO":999,"REV_AT_EPOCH":3440,"BSTAR":0,"MEAN_MOTION_DOT":-2.94e-6,"MEAN_MOTION_DDOT":0},{"OBJECT_NAME":"SHIJIAN-17 (SJ-17)","OBJECT_ID":"2016-065A","EPOCH":"2026-03-29T04:26:51.681696","MEAN_MOTION":0.99869131,"ECCENTRICITY":0.0001171,"INCLINATION":5.5508,"RA_OF_ASC_NODE":73.5516,"ARG_OF_PERICENTER":327.21,"MEAN_ANOMALY":206.7425,"EPHEMERIS_TYPE":0,"CLASSIFICATION_TYPE":"U","NORAD_CAT_ID":41838,"ELEMENT_SET_NO":999,"REV_AT_EPOCH":3440,"BSTAR":0,"MEAN_MOTION_DOT":-1.34e-6,"MEAN_MOTION_DDOT":0},{"OBJECT_NAME":"YZ-2 R/B","OBJECT_ID":"2016-065C","EPOCH":"2026-03-28T03:07:43.250880","MEAN_MOTION":0.93474078,"ECCENTRICITY":0.0466226,"INCLINATION":9.1577,"RA_OF_ASC_NODE":67.4002,"ARG_OF_PERICENTER":230.2393,"MEAN_ANOMALY":125.6463,"EPHEMERIS_TYPE":0,"CLASSIFICATION_TYPE":"U","NORAD_CAT_ID":41840,"ELEMENT_SET_NO":999,"REV_AT_EPOCH":3209,"BSTAR":0,"MEAN_MOTION_DOT":-1.93e-6,"MEAN_MOTION_DDOT":0},{"OBJECT_NAME":"GOES 16","OBJECT_ID":"2016-071A","EPOCH":"2026-03-29T03:58:39.387360","MEAN_MOTION":1.00271594,"ECCENTRICITY":0.0002177,"INCLINATION":0.1593,"RA_OF_ASC_NODE":85.487,"ARG_OF_PERICENTER":233.9683,"MEAN_ANOMALY":182.0751,"EPHEMERIS_TYPE":0,"CLASSIFICATION_TYPE":"U","NORAD_CAT_ID":41866,"ELEMENT_SET_NO":999,"REV_AT_EPOCH":3430,"BSTAR":0,"MEAN_MOTION_DOT":-1.1e-6,"MEAN_MOTION_DDOT":0},{"OBJECT_NAME":"TIANLIAN 1-04","OBJECT_ID":"2016-072A","EPOCH":"2026-03-29T03:36:11.542176","MEAN_MOTION":1.00272138,"ECCENTRICITY":0.0039985,"INCLINATION":0.6602,"RA_OF_ASC_NODE":83.3174,"ARG_OF_PERICENTER":92.0018,"MEAN_ANOMALY":242.0344,"EPHEMERIS_TYPE":0,"CLASSIFICATION_TYPE":"U","NORAD_CAT_ID":41869,"ELEMENT_SET_NO":999,"REV_AT_EPOCH":3449,"BSTAR":0,"MEAN_MOTION_DOT":1.2e-7,"MEAN_MOTION_DDOT":0},{"OBJECT_NAME":"WGS F8 (USA 272)","OBJECT_ID":"2016-075A","EPOCH":"2026-03-28T20:09:38.534112","MEAN_MOTION":1.00271762,"ECCENTRICITY":2.1e-5,"INCLINATION":0.0117,"RA_OF_ASC_NODE":195.1919,"ARG_OF_PERICENTER":225.75,"MEAN_ANOMALY":217.5141,"EPHEMERIS_TYPE":0,"CLASSIFICATION_TYPE":"U","NORAD_CAT_ID":41879,"ELEMENT_SET_NO":999,"REV_AT_EPOCH":3401,"BSTAR":0,"MEAN_MOTION_DOT":-2.22e-6,"MEAN_MOTION_DDOT":0},{"OBJECT_NAME":"FENGYUN 4A","OBJECT_ID":"2016-077A","EPOCH":"2026-03-28T23:55:50.399904","MEAN_MOTION":1.00266071,"ECCENTRICITY":0.0007472,"INCLINATION":2.1194,"RA_OF_ASC_NODE":81.0791,"ARG_OF_PERICENTER":136.1368,"MEAN_ANOMALY":91.8114,"EPHEMERIS_TYPE":0,"CLASSIFICATION_TYPE":"U","NORAD_CAT_ID":41882,"ELEMENT_SET_NO":999,"REV_AT_EPOCH":3412,"BSTAR":0,"MEAN_MOTION_DOT":-3.75e-6,"MEAN_MOTION_DDOT":0},{"OBJECT_NAME":"ECHOSTAR 19","OBJECT_ID":"2016-079A","EPOCH":"2026-03-29T02:23:07.577664","MEAN_MOTION":1.00271713,"ECCENTRICITY":0.0001396,"INCLINATION":0.019,"RA_OF_ASC_NODE":148.6451,"ARG_OF_PERICENTER":209.1682,"MEAN_ANOMALY":127.3562,"EPHEMERIS_TYPE":0,"CLASSIFICATION_TYPE":"U","NORAD_CAT_ID":41893,"ELEMENT_SET_NO":999,"REV_AT_EPOCH":3390,"BSTAR":0,"MEAN_MOTION_DOT":-1.58e-6,"MEAN_MOTION_DDOT":0},{"OBJECT_NAME":"JCSAT-110A (JCSAT-15)","OBJECT_ID":"2016-082A","EPOCH":"2026-03-28T23:51:58.270752","MEAN_MOTION":1.00266797,"ECCENTRICITY":5.94e-5,"INCLINATION":0.0248,"RA_OF_ASC_NODE":178.9041,"ARG_OF_PERICENTER":192.9483,"MEAN_ANOMALY":282.6227,"EPHEMERIS_TYPE":0,"CLASSIFICATION_TYPE":"U","NORAD_CAT_ID":41903,"ELEMENT_SET_NO":999,"REV_AT_EPOCH":3395,"BSTAR":0,"MEAN_MOTION_DOT":0,"MEAN_MOTION_DDOT":0},{"OBJECT_NAME":"STAR ONE D1","OBJECT_ID":"2016-082B","EPOCH":"2026-03-29T04:04:38.811360","MEAN_MOTION":1.0027067,"ECCENTRICITY":0.0002136,"INCLINATION":0.0161,"RA_OF_ASC_NODE":227.6263,"ARG_OF_PERICENTER":151.4022,"MEAN_ANOMALY":144.698,"EPHEMERIS_TYPE":0,"CLASSIFICATION_TYPE":"U","NORAD_CAT_ID":41904,"ELEMENT_SET_NO":999,"REV_AT_EPOCH":3397,"BSTAR":0,"MEAN_MOTION_DOT":-2.3e-6,"MEAN_MOTION_DDOT":0},{"OBJECT_NAME":"TJS-2","OBJECT_ID":"2017-001A","EPOCH":"2026-03-29T03:04:52.046688","MEAN_MOTION":1.00271643,"ECCENTRICITY":0.0001456,"INCLINATION":0.6272,"RA_OF_ASC_NODE":86.3467,"ARG_OF_PERICENTER":263.854,"MEAN_ANOMALY":309.0658,"EPHEMERIS_TYPE":0,"CLASSIFICATION_TYPE":"U","NORAD_CAT_ID":41911,"ELEMENT_SET_NO":999,"REV_AT_EPOCH":3391,"BSTAR":0,"MEAN_MOTION_DOT":-2.5e-7,"MEAN_MOTION_DDOT":0},{"OBJECT_NAME":"YZ-1 R/B","OBJECT_ID":"2015-019C","EPOCH":"2026-04-01T18:10:29.864640","MEAN_MOTION":0.27921402,"ECCENTRICITY":0.6864645,"INCLINATION":12.335,"RA_OF_ASC_NODE":102.0417,"ARG_OF_PERICENTER":300.3137,"MEAN_ANOMALY":358.8059,"EPHEMERIS_TYPE":0,"CLASSIFICATION_TYPE":"U","NORAD_CAT_ID":41929,"ELEMENT_SET_NO":999,"REV_AT_EPOCH":1055,"BSTAR":0,"MEAN_MOTION_DOT":-1.068e-5,"MEAN_MOTION_DDOT":0},{"OBJECT_NAME":"SBIRS GEO-4 (USA 273)","OBJECT_ID":"2017-004A","EPOCH":"2026-03-29T01:09:13.361184","MEAN_MOTION":1.00272001,"ECCENTRICITY":0.0002368,"INCLINATION":2.0948,"RA_OF_ASC_NODE":40.8894,"ARG_OF_PERICENTER":320.4883,"MEAN_ANOMALY":223.27,"EPHEMERIS_TYPE":0,"CLASSIFICATION_TYPE":"U","NORAD_CAT_ID":41937,"ELEMENT_SET_NO":999,"REV_AT_EPOCH":3379,"BSTAR":0,"MEAN_MOTION_DOT":1.06e-6,"MEAN_MOTION_DDOT":0},{"OBJECT_NAME":"HISPASAT 36W-1","OBJECT_ID":"2017-006A","EPOCH":"2026-03-29T04:18:15.007104","MEAN_MOTION":1.0027247,"ECCENTRICITY":0.0001053,"INCLINATION":0.0191,"RA_OF_ASC_NODE":9.876,"ARG_OF_PERICENTER":352.5398,"MEAN_ANOMALY":212.7212,"EPHEMERIS_TYPE":0,"CLASSIFICATION_TYPE":"U","NORAD_CAT_ID":41942,"ELEMENT_SET_NO":999,"REV_AT_EPOCH":3344,"BSTAR":0,"MEAN_MOTION_DOT":-2.64e-6,"MEAN_MOTION_DDOT":0},{"OBJECT_NAME":"TELKOM 3S","OBJECT_ID":"2017-007A","EPOCH":"2026-03-28T23:54:13.054752","MEAN_MOTION":1.00272453,"ECCENTRICITY":0.0002338,"INCLINATION":0.0168,"RA_OF_ASC_NODE":190.7612,"ARG_OF_PERICENTER":174.0097,"MEAN_ANOMALY":298.1791,"EPHEMERIS_TYPE":0,"CLASSIFICATION_TYPE":"U","NORAD_CAT_ID":41944,"ELEMENT_SET_NO":999,"REV_AT_EPOCH":3333,"BSTAR":0,"MEAN_MOTION_DOT":-3.82e-6,"MEAN_MOTION_DDOT":0},{"OBJECT_NAME":"INTELSAT 32E (IS-32E)","OBJECT_ID":"2017-007B","EPOCH":"2026-03-29T04:16:15.197952","MEAN_MOTION":1.00270876,"ECCENTRICITY":6.44e-5,"INCLINATION":0.0241,"RA_OF_ASC_NODE":178.4201,"ARG_OF_PERICENTER":112.0226,"MEAN_ANOMALY":277.0379,"EPHEMERIS_TYPE":0,"CLASSIFICATION_TYPE":"U","NORAD_CAT_ID":41945,"ELEMENT_SET_NO":999,"REV_AT_EPOCH":3342,"BSTAR":0,"MEAN_MOTION_DOT":0,"MEAN_MOTION_DDOT":0},{"OBJECT_NAME":"ECHOSTAR 23","OBJECT_ID":"2017-014A","EPOCH":"2026-03-28T22:49:09.747264","MEAN_MOTION":1.00270676,"ECCENTRICITY":0.0002019,"INCLINATION":0.023,"RA_OF_ASC_NODE":172.5476,"ARG_OF_PERICENTER":199.3275,"MEAN_ANOMALY":46.8868,"EPHEMERIS_TYPE":0,"CLASSIFICATION_TYPE":"U","NORAD_CAT_ID":42070,"ELEMENT_SET_NO":999,"REV_AT_EPOCH":3311,"BSTAR":0,"MEAN_MOTION_DOT":0,"MEAN_MOTION_DDOT":0}]
